CCSDS_OMM_VERS = 2.0
CREATION_DATE  = 
ORIGINATOR     = 

OBJECT_NAME    = HULIANWANG DIGUI-120
OBJECT_ID      = 2025-295B
CENTER_NAME    = EARTH
REF_FRAME      = TEME
TIME_SYSTEM    = UTC
MEAN_ELEMENT_THEORY = SGP/SGP4

EPOCH          = 2025-12-15T17:12:24.401376
MEAN_MOTION    = 14.25706335
ECCENTRICITY   = .00132237
INCLINATION    = 50.0050
RA_OF_ASC_NODE = 359.6709
ARG_OF_PERICENTER = 257.2650
MEAN_ANOMALY   = 102.6786

EPHEMERIS_TYPE = 0
CLASSIFICATION_TYPE = U
NORAD_CAT_ID   = 67060
ELEMENT_SET_NO = 999
REV_AT_EPOCH   = 54
BSTAR          = .66896441E-4
MEAN_MOTION_DOT = 0
MEAN_MOTION_DDOT = 0

CCSDS_OMM_VERS = 2.0
CREATION_DATE  = 
ORIGINATOR     = 

OBJECT_NAME    = HULIANWANG DIGUI-121
OBJECT_ID      = 2025-295C
CENTER_NAME    = EARTH
REF_FRAME      = TEME
TIME_SYSTEM    = UTC
MEAN_ELEMENT_THEORY = SGP/SGP4

EPOCH          = 2025-12-15T17:12:22.292352
MEAN_MOTION    = 14.25729079
ECCENTRICITY   = .00132682
INCLINATION    = 50.0012
RA_OF_ASC_NODE = 359.6606
ARG_OF_PERICENTER = 256.3366
MEAN_ANOMALY   = 103.6071

EPHEMERIS_TYPE = 0
CLASSIFICATION_TYPE = U
NORAD_CAT_ID   = 67061
ELEMENT_SET_NO = 999
REV_AT_EPOCH   = 54
BSTAR          = .66638352E-4
MEAN_MOTION_DOT = -.1E-7
MEAN_MOTION_DDOT = 0

CCSDS_OMM_VERS = 2.0
CREATION_DATE  = 
ORIGINATOR     = 

OBJECT_NAME    = HULIANWANG DIGUI-122
OBJECT_ID      = 2025-295D
CENTER_NAME    = EARTH
REF_FRAME      = TEME
TIME_SYSTEM    = UTC
MEAN_ELEMENT_THEORY = SGP/SGP4

EPOCH          = 2025-12-19T18:46:11.191008
MEAN_MOTION    = 14.25755377
ECCENTRICITY   = .0013166
INCLINATION    = 50.0054
RA_OF_ASC_NODE = 342.5018
ARG_OF_PERICENTER = 278.0438
MEAN_ANOMALY   = 81.8981

EPHEMERIS_TYPE = 0
CLASSIFICATION_TYPE = U
NORAD_CAT_ID   = 67062
ELEMENT_SET_NO = 999
REV_AT_EPOCH   = 112
BSTAR          = .11542E-3
MEAN_MOTION_DOT = .116E-5
MEAN_MOTION_DDOT = 0

CCSDS_OMM_VERS = 2.0
CREATION_DATE  = 
ORIGINATOR     = 

OBJECT_NAME    = HULIANWANG DIGUI-123
OBJECT_ID      = 2025-295E
CENTER_NAME    = EARTH
REF_FRAME      = TEME
TIME_SYSTEM    = UTC
MEAN_ELEMENT_THEORY = SGP/SGP4

EPOCH          = 2025-12-19T18:45:08.693568
MEAN_MOTION    = 14.25888181
ECCENTRICITY   = .0012481
INCLINATION    = 50.0061
RA_OF_ASC_NODE = 342.5004
ARG_OF_PERICENTER = 277.2305
MEAN_ANOMALY   = 82.7190

EPHEMERIS_TYPE = 0
CLASSIFICATION_TYPE = U
NORAD_CAT_ID   = 67063
ELEMENT_SET_NO = 999
REV_AT_EPOCH   = 112
BSTAR          = .11241E-3
MEAN_MOTION_DOT = .109E-5
MEAN_MOTION_DDOT = 0

CCSDS_OMM_VERS = 2.0
CREATION_DATE  = 
ORIGINATOR     = 

OBJECT_NAME    = HULIANWANG DIGUI-124
OBJECT_ID      = 2025-295F
CENTER_NAME    = EARTH
REF_FRAME      = TEME
TIME_SYSTEM    = UTC
MEAN_ELEMENT_THEORY = SGP/SGP4

EPOCH          = 2025-12-19T18:44:40.116768
MEAN_MOTION    = 14.25949421
ECCENTRICITY   = .0012089
INCLINATION    = 50.0035
RA_OF_ASC_NODE = 342.4852
ARG_OF_PERICENTER = 271.8822
MEAN_ANOMALY   = 88.0708

EPHEMERIS_TYPE = 0
CLASSIFICATION_TYPE = U
NORAD_CAT_ID   = 67064
ELEMENT_SET_NO = 999
REV_AT_EPOCH   = 112
BSTAR          = -.19275E-3
MEAN_MOTION_DOT = -.623E-5
MEAN_MOTION_DDOT = 0

CCSDS_OMM_VERS = 2.0
CREATION_DATE  = 
ORIGINATOR     = 

OBJECT_NAME    = HULIANWANG DIGUI-125
OBJECT_ID      = 2025-295G
CENTER_NAME    = EARTH
REF_FRAME      = TEME
TIME_SYSTEM    = UTC
MEAN_ELEMENT_THEORY = SGP/SGP4

EPOCH          = 2025-12-19T18:44:37.976640
MEAN_MOTION    = 14.25953854
ECCENTRICITY   = .0012279
INCLINATION    = 50.0012
RA_OF_ASC_NODE = 342.4835
ARG_OF_PERICENTER = 277.8662
MEAN_ANOMALY   = 82.0858

EPHEMERIS_TYPE = 0
CLASSIFICATION_TYPE = U
NORAD_CAT_ID   = 67065
ELEMENT_SET_NO = 999
REV_AT_EPOCH   = 112
BSTAR          = .10857E-3
MEAN_MOTION_DOT = .101E-5
MEAN_MOTION_DDOT = 0

CCSDS_OMM_VERS = 2.0
CREATION_DATE  = 
ORIGINATOR     = 

OBJECT_NAME    = HULIANWANG DIGUI-126
OBJECT_ID      = 2025-295H
CENTER_NAME    = EARTH
REF_FRAME      = TEME
TIME_SYSTEM    = UTC
MEAN_ELEMENT_THEORY = SGP/SGP4

EPOCH          = 2025-12-19T18:43:29.093376
MEAN_MOTION    = 14.26096808
ECCENTRICITY   = .0011439
INCLINATION    = 50.0014
RA_OF_ASC_NODE = 342.4785
ARG_OF_PERICENTER = 275.0106
MEAN_ANOMALY   = 84.9502

EPHEMERIS_TYPE = 0
CLASSIFICATION_TYPE = U
NORAD_CAT_ID   = 67066
ELEMENT_SET_NO = 999
REV_AT_EPOCH   = 112
BSTAR          = .10653E-3
MEAN_MOTION_DOT = .96E-6
MEAN_MOTION_DDOT = 0

CCSDS_OMM_VERS = 2.0
CREATION_DATE  = 
ORIGINATOR     = 

OBJECT_NAME    = HULIANWANG DIGUI-127
OBJECT_ID      = 2025-295J
CENTER_NAME    = EARTH
REF_FRAME      = TEME
TIME_SYSTEM    = UTC
MEAN_ELEMENT_THEORY = SGP/SGP4

EPOCH          = 2025-12-19T18:42:24.914592
MEAN_MOTION    = 14.26251183
ECCENTRICITY   = .0010875
INCLINATION    = 50.0053
RA_OF_ASC_NODE = 342.4819
ARG_OF_PERICENTER = 278.9010
MEAN_ANOMALY   = 81.0673

EPHEMERIS_TYPE = 0
CLASSIFICATION_TYPE = U
NORAD_CAT_ID   = 67067
ELEMENT_SET_NO = 999
REV_AT_EPOCH   = 112
BSTAR          = -.26867E-3
MEAN_MOTION_DOT = -.809E-5
MEAN_MOTION_DDOT = 0

CCSDS_OMM_VERS = 2.0
CREATION_DATE  = 
ORIGINATOR     = 

OBJECT_NAME    = CZ-12 R/B
OBJECT_ID      = 2025-295K
CENTER_NAME    = EARTH
REF_FRAME      = TEME
TIME_SYSTEM    = UTC
MEAN_ELEMENT_THEORY = SGP/SGP4

EPOCH          = 2025-12-19T11:47:42.665856
MEAN_MOTION    = 14.41129033
ECCENTRICITY   = .0056889
INCLINATION    = 49.9945
RA_OF_ASC_NODE = 342.9744
ARG_OF_PERICENTER = 160.1053
MEAN_ANOMALY   = 200.2102

EPHEMERIS_TYPE = 0
CLASSIFICATION_TYPE = U
NORAD_CAT_ID   = 67068
ELEMENT_SET_NO = 999
REV_AT_EPOCH   = 108
BSTAR          = .15271E-4
MEAN_MOTION_DOT = -.118E-5
MEAN_MOTION_DDOT = 0

CCSDS_OMM_VERS = 2.0
CREATION_DATE  = 
ORIGINATOR     = 

OBJECT_NAME    = XIWANG-5 02
OBJECT_ID      = 2025-296A
CENTER_NAME    = EARTH
REF_FRAME      = TEME
TIME_SYSTEM    = UTC
MEAN_ELEMENT_THEORY = SGP/SGP4

EPOCH          = 2025-12-19T16:21:31.212000
MEAN_MOTION    = 15.16806567
ECCENTRICITY   = .0014495
INCLINATION    = 41.3526
RA_OF_ASC_NODE = 61.9750
ARG_OF_PERICENTER = 74.5676
MEAN_ANOMALY   = 285.6746

EPHEMERIS_TYPE = 0
CLASSIFICATION_TYPE = U
NORAD_CAT_ID   = 67069
ELEMENT_SET_NO = 999
REV_AT_EPOCH   = 101
BSTAR          = .43858E-3
MEAN_MOTION_DOT = .8613E-4
MEAN_MOTION_DDOT = 0

CCSDS_OMM_VERS = 2.0
CREATION_DATE  = 
ORIGINATOR     = 

OBJECT_NAME    = DEAR-5
OBJECT_ID      = 2025-296B
CENTER_NAME    = EARTH
REF_FRAME      = TEME
TIME_SYSTEM    = UTC
MEAN_ELEMENT_THEORY = SGP/SGP4

EPOCH          = 2025-12-19T16:20:25.579104
MEAN_MOTION    = 15.16874808
ECCENTRICITY   = .0016066
INCLINATION    = 41.3553
RA_OF_ASC_NODE = 61.9711
ARG_OF_PERICENTER = 75.9678
MEAN_ANOMALY   = 284.2929

EPHEMERIS_TYPE = 0
CLASSIFICATION_TYPE = U
NORAD_CAT_ID   = 67070
ELEMENT_SET_NO = 999
REV_AT_EPOCH   = 100
BSTAR          = .23707E-3
MEAN_MOTION_DOT = .4569E-4
MEAN_MOTION_DDOT = 0

CCSDS_OMM_VERS = 2.0
CREATION_DATE  = 
ORIGINATOR     = 

OBJECT_NAME    = KZ-11 R/B
OBJECT_ID      = 2025-296C
CENTER_NAME    = EARTH
REF_FRAME      = TEME
TIME_SYSTEM    = UTC
MEAN_ELEMENT_THEORY = SGP/SGP4

EPOCH          = 2025-12-19T13:41:34.586880
MEAN_MOTION    = 14.97990910
ECCENTRICITY   = .0633659
INCLINATION    = 41.3275
RA_OF_ASC_NODE = 65.0444
ARG_OF_PERICENTER = 1.3602
MEAN_ANOMALY   = 358.8773

EPHEMERIS_TYPE = 0
CLASSIFICATION_TYPE = U
NORAD_CAT_ID   = 67071
ELEMENT_SET_NO = 999
REV_AT_EPOCH   = 96
BSTAR          = .52382E-3
MEAN_MOTION_DOT = .6216299E-1
MEAN_MOTION_DDOT = .62939E-5

